GPS BIIF-7  (PRN 09)    
1 40105U 14045A   26073.31949591  .00000042  00000+0  00000+0 0  9997
2 40105  55.2885  92.2427 0031424 120.3235 240.0488  2.00552225 84170
GPS BIIF-8  (PRN 03)    
1 40294U 14068A   26074.19398010 -.00000045  00000+0  00000+0 0  9996
2 40294  56.9270  34.5761 0063290  68.1149 292.5499  2.00570489 83326
GPS BIIF-9  (PRN 26)    
1 40534U 15013A   26073.32863892  .00000004  00000+0  00000+0 0  9997
2 40534  53.1840 208.0995 0108770  39.8522 320.9054  2.00556996 79926
GPS BIIF-10 (PRN 08)    
1 40730U 15033A   26072.99041878  .00000035  00000+0  00000+0 0  9995
2 40730  54.0576 271.0094 0114687  29.1823 331.4807  2.00561166 78084
GPS BIIF-11 (PRN 10)    
1 41019U 15062A   26073.54768049 -.00000046  00000+0  00000+0 0  9999
2 41019  56.8998  34.4573 0111400 231.5515 127.4408  2.00567062 75935
GPS BIIF-12 (PRN 32)    
1 41328U 16007A   26072.13767287  .00000030  00000+0  00000+0 0  9991
2 41328  55.4616  93.2660 0095647 246.2279 112.8230  2.00556390 73913
GPS BIII-1  (PRN 04)    
1 43873U 18109A   26072.52464372  .00000035  00000+0  00000+0 0  9990
2 43873  55.6205  95.9595 0038059 198.5669 333.4222  2.00557317 53154
GPS BIII-2  (PRN 18)    
1 44506U 19056A   26073.65497499 -.00000072  00000+0  00000+0 0  9999
2 44506  55.6800 334.9029 0058240 197.9897 330.8097  2.00568616 48178
GPS BIII-3  (PRN 23)    
1 45854U 20041A   26074.23277601 -.00000049  00000+0  00000+0 0  9992
2 45854  56.6123  32.5896 0061514 205.1444 322.6890  2.00560555 42151
GPS BIII-4  (PRN 14)    
1 46826U 20078A   26074.28281818  .00000009  00000+0  00000+0 0  9997
2 46826  53.9997 214.5850 0068810 204.5097 332.9899  2.00565421 39623
GPS BIII-5  (PRN 11)    
1 48859U 21054A   26073.52842193 -.00000075  00000+0  00000+0 0  9999
2 48859  55.2165 336.2678 0023802 231.6535 305.6629  2.00575107 34853
GPS BIII-6  (PRN 28)    
1 55268U 23009A   26074.23186546  .00000008  00000+0  00000+0 0  9990
2 55268  55.1110 152.2127 0004379 349.3823  14.1122  2.00548535 23363
GPS BIII-7  (PRN 01)    
1 62339U 24242A   26072.36572414 -.00000084  00000+0  00000+0 0  9997
2 62339  54.8883 338.0689 0016012 357.5685 181.1760  2.00570015  9336
GPS BIII-8  (PRN 21)    
1 64202U 25116A   26073.60598262 -.00000048  00000+0  00000+0 0  9996
2 64202  55.1746  34.9370 0008595 328.4748 210.8678  2.00552626  5974
GPS BIII-9  (PRN 20)    
1 67588U 26017A   26062.99831483  .00000012  00000+0  00000+0 0  9992
2 67588  55.0184  92.9751 0001516  18.2827 341.7919  2.00560918429508
