[{"OBJECT_NAME":"GPS BIIF-7  (PRN 09)","OBJECT_ID":"2014-045A","EPOCH":"2026-03-14T07:40:04.446624","MEAN_MOTION":2.00552225,"ECCENTRICITY":0.00314248,"INCLINATION":55.2885,"RA_OF_ASC_NODE":92.2427,"ARG_OF_PERICENTER":120.3235,"MEAN_ANOMALY":240.0488,"EPHEMERIS_TYPE":0,"CLASSIFICATION_TYPE":"U","NORAD_CAT_ID":40105,"ELEMENT_SET_NO":999,"REV_AT_EPOCH":8417,"BSTAR":0,"MEAN_MOTION_DOT":4.2e-7,"MEAN_MOTION_DDOT":0},{"OBJECT_NAME":"GPS BIIF-8  (PRN 03)","OBJECT_ID":"2014-068A","EPOCH":"2026-03-15T04:39:19.880640","MEAN_MOTION":2.00570489,"ECCENTRICITY":0.00632901,"INCLINATION":56.927,"RA_OF_ASC_NODE":34.5761,"ARG_OF_PERICENTER":68.1149,"MEAN_ANOMALY":292.5499,"EPHEMERIS_TYPE":0,"CLASSIFICATION_TYPE":"U","NORAD_CAT_ID":40294,"ELEMENT_SET_NO":999,"REV_AT_EPOCH":8332,"BSTAR":0,"MEAN_MOTION_DOT":-4.5e-7,"MEAN_MOTION_DDOT":0},{"OBJECT_NAME":"GPS BIIF-9  (PRN 26)","OBJECT_ID":"2015-013A","EPOCH":"2026-03-14T07:53:14.402688","MEAN_MOTION":2.00556996,"ECCENTRICITY":0.01087708,"INCLINATION":53.184,"RA_OF_ASC_NODE":208.0995,"ARG_OF_PERICENTER":39.8522,"MEAN_ANOMALY":320.9054,"EPHEMERIS_TYPE":0,"CLASSIFICATION_TYPE":"U","NORAD_CAT_ID":40534,"ELEMENT_SET_NO":999,"REV_AT_EPOCH":7992,"BSTAR":0,"MEAN_MOTION_DOT":4.0e-8,"MEAN_MOTION_DDOT":0},{"OBJECT_NAME":"GPS BIIF-10 (PRN 08)","OBJECT_ID":"2015-033A","EPOCH":"2026-03-13T23:46:12.182592","MEAN_MOTION":2.00561166,"ECCENTRICITY":0.0114687,"INCLINATION":54.0576,"RA_OF_ASC_NODE":271.0094,"ARG_OF_PERICENTER":29.1823,"MEAN_ANOMALY":331.4807,"EPHEMERIS_TYPE":0,"CLASSIFICATION_TYPE":"U","NORAD_CAT_ID":40730,"ELEMENT_SET_NO":999,"REV_AT_EPOCH":7808,"BSTAR":0,"MEAN_MOTION_DOT":3.5e-7,"MEAN_MOTION_DDOT":0},{"OBJECT_NAME":"GPS BIIF-11 (PRN 10)","OBJECT_ID":"2015-062A","EPOCH":"2026-03-14T13:08:39.594336","MEAN_MOTION":2.00567062,"ECCENTRICITY":0.01114002,"INCLINATION":56.8998,"RA_OF_ASC_NODE":34.4573,"ARG_OF_PERICENTER":231.5515,"MEAN_ANOMALY":127.4408,"EPHEMERIS_TYPE":0,"CLASSIFICATION_TYPE":"U","NORAD_CAT_ID":41019,"ELEMENT_SET_NO":999,"REV_AT_EPOCH":7593,"BSTAR":0,"MEAN_MOTION_DOT":-4.6e-7,"MEAN_MOTION_DDOT":0},{"OBJECT_NAME":"GPS BIIF-12 (PRN 32)","OBJECT_ID":"2016-007A","EPOCH":"2026-03-13T03:18:14.935968","MEAN_MOTION":2.0055639,"ECCENTRICITY":0.00956473,"INCLINATION":55.4616,"RA_OF_ASC_NODE":93.266,"ARG_OF_PERICENTER":246.2279,"MEAN_ANOMALY":112.823,"EPHEMERIS_TYPE":0,"CLASSIFICATION_TYPE":"U","NORAD_CAT_ID":41328,"ELEMENT_SET_NO":999,"REV_AT_EPOCH":7391,"BSTAR":0,"MEAN_MOTION_DOT":3.0e-7,"MEAN_MOTION_DDOT":0},{"OBJECT_NAME":"GPS BIII-1  (PRN 04)","OBJECT_ID":"2018-109A","EPOCH":"2026-03-13T12:35:29.217408","MEAN_MOTION":2.00557317,"ECCENTRICITY":0.00380595,"INCLINATION":55.6205,"RA_OF_ASC_NODE":95.9595,"ARG_OF_PERICENTER":198.5669,"MEAN_ANOMALY":333.4222,"EPHEMERIS_TYPE":0,"CLASSIFICATION_TYPE":"U","NORAD_CAT_ID":43873,"ELEMENT_SET_NO":999,"REV_AT_EPOCH":5315,"BSTAR":0,"MEAN_MOTION_DOT":3.5e-7,"MEAN_MOTION_DDOT":0},{"OBJECT_NAME":"GPS BIII-2  (PRN 18)","OBJECT_ID":"2019-056A","EPOCH":"2026-03-14T15:43:09.839136","MEAN_MOTION":2.00568616,"ECCENTRICITY":0.00582403,"INCLINATION":55.68,"RA_OF_ASC_NODE":334.9029,"ARG_OF_PERICENTER":197.9897,"MEAN_ANOMALY":330.8097,"EPHEMERIS_TYPE":0,"CLASSIFICATION_TYPE":"U","NORAD_CAT_ID":44506,"ELEMENT_SET_NO":999,"REV_AT_EPOCH":4817,"BSTAR":0,"MEAN_MOTION_DOT":-7.2e-7,"MEAN_MOTION_DDOT":0},{"OBJECT_NAME":"GPS BIII-3  (PRN 23)","OBJECT_ID":"2020-041A","EPOCH":"2026-03-15T05:35:11.847264","MEAN_MOTION":2.00560555,"ECCENTRICITY":0.00615143,"INCLINATION":56.6123,"RA_OF_ASC_NODE":32.5896,"ARG_OF_PERICENTER":205.1444,"MEAN_ANOMALY":322.689,"EPHEMERIS_TYPE":0,"CLASSIFICATION_TYPE":"U","NORAD_CAT_ID":45854,"ELEMENT_SET_NO":999,"REV_AT_EPOCH":4215,"BSTAR":0,"MEAN_MOTION_DOT":-4.9e-7,"MEAN_MOTION_DDOT":0},{"OBJECT_NAME":"GPS BIII-4  (PRN 14)","OBJECT_ID":"2020-078A","EPOCH":"2026-03-15T06:47:15.490752","MEAN_MOTION":2.00565421,"ECCENTRICITY":0.00688109,"INCLINATION":53.9997,"RA_OF_ASC_NODE":214.585,"ARG_OF_PERICENTER":204.5097,"MEAN_ANOMALY":332.9899,"EPHEMERIS_TYPE":0,"CLASSIFICATION_TYPE":"U","NORAD_CAT_ID":46826,"ELEMENT_SET_NO":999,"REV_AT_EPOCH":3962,"BSTAR":0,"MEAN_MOTION_DOT":9.0e-8,"MEAN_MOTION_DDOT":0},{"OBJECT_NAME":"GPS BIII-5  (PRN 11)","OBJECT_ID":"2021-054A","EPOCH":"2026-03-14T12:40:55.654752","MEAN_MOTION":2.00575107,"ECCENTRICITY":0.00238027,"INCLINATION":55.2165,"RA_OF_ASC_NODE":336.2678,"ARG_OF_PERICENTER":231.6535,"MEAN_ANOMALY":305.6629,"EPHEMERIS_TYPE":0,"CLASSIFICATION_TYPE":"U","NORAD_CAT_ID":48859,"ELEMENT_SET_NO":999,"REV_AT_EPOCH":3485,"BSTAR":0,"MEAN_MOTION_DOT":-7.5e-7,"MEAN_MOTION_DDOT":0},{"OBJECT_NAME":"GPS BIII-6  (PRN 28)","OBJECT_ID":"2023-009A","EPOCH":"2026-03-15T05:33:53.175744","MEAN_MOTION":2.00548535,"ECCENTRICITY":0.0004379,"INCLINATION":55.111,"RA_OF_ASC_NODE":152.2127,"ARG_OF_PERICENTER":349.3823,"MEAN_ANOMALY":14.1122,"EPHEMERIS_TYPE":0,"CLASSIFICATION_TYPE":"U","NORAD_CAT_ID":55268,"ELEMENT_SET_NO":999,"REV_AT_EPOCH":2336,"BSTAR":0,"MEAN_MOTION_DOT":8.0e-8,"MEAN_MOTION_DDOT":0},{"OBJECT_NAME":"GPS BIII-7  (PRN 01)","OBJECT_ID":"2024-242A","EPOCH":"2026-03-13T08:46:38.565696","MEAN_MOTION":2.00570015,"ECCENTRICITY":0.00160127,"INCLINATION":54.8883,"RA_OF_ASC_NODE":338.0689,"ARG_OF_PERICENTER":357.5685,"MEAN_ANOMALY":181.176,"EPHEMERIS_TYPE":0,"CLASSIFICATION_TYPE":"U","NORAD_CAT_ID":62339,"ELEMENT_SET_NO":999,"REV_AT_EPOCH":933,"BSTAR":0,"MEAN_MOTION_DOT":-8.4e-7,"MEAN_MOTION_DDOT":0},{"OBJECT_NAME":"GPS BIII-8  (PRN 21)","OBJECT_ID":"2025-116A","EPOCH":"2026-03-14T14:32:36.898368","MEAN_MOTION":2.00552626,"ECCENTRICITY":0.00085957,"INCLINATION":55.1746,"RA_OF_ASC_NODE":34.937,"ARG_OF_PERICENTER":328.4748,"MEAN_ANOMALY":210.8678,"EPHEMERIS_TYPE":0,"CLASSIFICATION_TYPE":"U","NORAD_CAT_ID":64202,"ELEMENT_SET_NO":999,"REV_AT_EPOCH":597,"BSTAR":0,"MEAN_MOTION_DOT":-4.8e-7,"MEAN_MOTION_DDOT":0},{"OBJECT_NAME":"GPS BIII-9  (PRN 20)","OBJECT_ID":"2026-017A","EPOCH":"2026-03-03T23:57:34.401312","MEAN_MOTION":2.00560918,"ECCENTRICITY":0.00015162,"INCLINATION":55.0184,"RA_OF_ASC_NODE":92.9751,"ARG_OF_PERICENTER":18.2827,"MEAN_ANOMALY":341.7919,"EPHEMERIS_TYPE":0,"CLASSIFICATION_TYPE":"U","NORAD_CAT_ID":67588,"ELEMENT_SET_NO":999,"REV_AT_EPOCH":42950,"BSTAR":0,"MEAN_MOTION_DOT":1.2e-7,"MEAN_MOTION_DDOT":0}]
